NORAD_CAT_ID,OBJECT_NAME,OBJECT_TYPE,EPOCH,MEAN_MOTION,ECCENTRICITY,INCLINATION,RA_OF_ASC_NODE,ARG_OF_PERICENTER,MEAN_ANOMALY,BSTAR,MEAN_MOTION_DOT,MEAN_MOTION_DDOT,TLE_LINE0,TLE_LINE1,TLE_LINE2,SEMIMAJOR_AXIS,PERIOD,APOGEE,PERIGEE,DECAYED
53293.0,STARLINK-4148,PAYLOAD,2022-09-05 22:00:00,15.73173641,0.000221,53.2165,188.6179,24.6545,285.3281,-0.00045893,-0.00064473,0.0,0 STARLINK-4148,1 53293U 22086BD  22248.91667824 -.00064473  00000-0 -45893-3 0  9999,2 53293  53.2165 188.6179 0002210  24.6545 285.3281 15.73173641  1308,6727.97,91.535,351.32199999999995,348.348,0.0
53293.0,STARLINK-4148,PAYLOAD,2022-09-06 06:00:00,15.73114382,0.000247,53.2167,186.9705,24.7514,14.1015,0.00052188,0.00072998,0.0,0 STARLINK-4148,1 53293U 22086BD  22249.25001157  .00072998  00000-0  52188-3 0  9992,2 53293  53.2167 186.9705 0002470  24.7514  14.1015 15.73114382  7510,6728.139,91.538,351.666,348.342,0.0
53293.0,STARLINK-4148,PAYLOAD,2022-09-06 12:00:00,15.73169435,0.0002293,53.2167,185.7322,23.0161,352.4637,-0.00043015,-0.00060487,0.0,0 STARLINK-4148,1 53293U 22086BD  22249.50001157 -.00060487  00000-0 -43015-3 0  9991,2 53293  53.2167 185.7322 0002293  23.0161 352.4637 15.73169435  7545,6727.982,91.535,351.39,348.305,0.0
53293.0,STARLINK-4148,PAYLOAD,2022-09-06 14:00:01,15.73122718,0.0002226,53.217,185.3193,22.2237,105.4824,0.00011448,0.00015423,0.0,0 STARLINK-4148,1 53293U 22086BD  22249.58334491  .00015423  00000-0  11448-3 0  9992,2 53293  53.2170 185.3193 0002226  22.2237 105.4824 15.73122718  1307,6728.116,91.538,351.478,348.483,0.0
53293.0,STARLINK-4148,PAYLOAD,2022-09-06 20:00:01,15.731298,0.0002171999999999,53.2171,184.082,25.7968,78.535,0.00050527,0.0007067999999999,0.0,0 STARLINK-4148,1 53293U 22086BD  22249.83334491  .00070680  00000-0  50527-3 0  9997,2 53293  53.2171 184.0820 0002172  25.7968  78.5350 15.73129800  7602,6728.095,91.537,351.422,348.499,0.0
53293.0,STARLINK-4148,PAYLOAD,2022-09-06 22:00:00,15.73150073,0.0002222,53.2171,183.6702,24.7088,191.8255,0.00027501,0.0003807,0.0,0 STARLINK-4148,1 53293U 22086BD  22249.91667824  .00038070  00000-0  27501-3 0  9998,2 53293  53.2171 183.6702 0002222  24.7088 191.8255 15.73150073  1304,6728.038000000001,91.536,351.397,348.408,0.0
53293.0,STARLINK-4148,PAYLOAD,2022-09-07 14:00:01,15.73200851,0.0002169,53.2167,180.3712,26.4479,7.882999999999999,0.00045499,0.00063726,0.0,0 STARLINK-4148,1 53293U 22086BD  22250.58334491  .00063726  00000-0  45499-3 0  9996,2 53293  53.2167 180.3712 0002169  26.4479   7.8830 15.73200851  7724,6727.893,91.533,351.217,348.298,0.0
53293.0,STARLINK-4148,PAYLOAD,2022-09-07 22:00:00,15.73272626,0.0002226,53.217,178.7221,30.0757,93.2065,-0.00048589,-0.0006848,0.0,0 STARLINK-4148,1 53293U 22086BD  22250.91667824 -.00068480  00000-0 -48589-3 0  9999,2 53293  53.2170 178.7221 0002226  30.0757  93.2065 15.73272626  1304,6727.688,91.529,351.051,348.056,0.0
53293.0,STARLINK-4148,PAYLOAD,2022-09-08 06:00:00,15.732359900000002,0.0002372,53.2172,177.0742,26.9487,185.3207,-7.7087e-05,-0.00011444,0.0,0 STARLINK-4148,1 53293U 22086BD  22251.25001157 -.00011444  00000-0 -77087-4 0  9992,2 53293  53.2172 177.0742 0002372  26.9487 185.3207 15.73235990  7829,6727.793000000002,91.531,351.25300000000016,348.06199999999984,0.0
53293.0,STARLINK-4148,PAYLOAD,2022-09-08 14:00:01,15.7318869,0.0002174,53.2176,175.4228,27.5482,273.6857,0.00047709,0.00066842,0.0,0 STARLINK-4148,1 53293U 22086BD  22251.58334491  .00066842  00000-0  47709-3 0  9995,2 53293  53.2176 175.4228 0002174  27.5482 273.6857 15.73188690  1309,6727.927,91.534,351.255,348.33,0.0
53293.0,STARLINK-4148,PAYLOAD,2022-09-08 22:00:00,15.73264087,0.0002251999999999,53.2177,173.7738,30.8417,359.3392,-0.00058339,-0.00081938,0.0,0 STARLINK-4148,1 53293U 22086BD  22251.91667824 -.00081938  00000-0 -58339-3 0  9997,2 53293  53.2177 173.7738 0002252  30.8417 359.3392 15.73264087  1300,6727.712,91.529,351.093,348.06199999999984,0.0
53293.0,STARLINK-4148,PAYLOAD,2022-09-09 14:00:01,15.73222465,0.0001986,53.2172,170.4743,27.5872,180.4945,-1.4414e-05,-2.646e-05,0.0,0 STARLINK-4148,1 53293U 22086BD  22252.58334491 -.00002646  00000-0 -14414-4 0  9998,2 53293  53.2172 170.4743 0001986  27.5872 180.4945 15.73222465  1307,6727.831,91.532,351.032,348.36,0.0
53293.0,STARLINK-4148,PAYLOAD,2022-09-09 22:00:00,15.73226424,0.0001998,53.2171,168.8256,27.0566,269.9784,-7.1616e-05,-0.00010671,0.0,0 STARLINK-4148,1 53293U 22086BD  22252.91667824 -.00010671  00000-0 -71616-4 0  9998,2 53293  53.2171 168.8256 0001998  27.0566 269.9784 15.73226424  1307,6727.82,91.532,351.029,348.341,0.0
53293.0,STARLINK-4148,PAYLOAD,2022-09-10 12:00:00,15.73225393,0.0001982,53.2163,165.9389,26.1902,336.4707,-0.00053152,-0.00074645,0.0,0 STARLINK-4148,1 53293U 22086BD  22253.50001157 -.00074645  00000-0 -53152-3 0  9990,2 53293  53.2163 165.9389 0001982  26.1902 336.4707 15.73225393  8171,6727.823,91.532,351.021,348.35400000000016,0.0
53293.0,STARLINK-4148,PAYLOAD,2022-09-10 14:00:01,15.73178903,0.0001919,53.216,165.5261,24.7732,90.1351,6.4874e-05,8.485e-05,0.0,0 STARLINK-4148,1 53293U 22086BD  22253.58334491  .00008485  00000-0  64874-4 0  9999,2 53293  53.2160 165.5261 0001919  24.7732  90.1351 15.73178903  1309,6727.955,91.534,351.111,348.529,0.0
53293.0,STARLINK-4148,PAYLOAD,2022-09-10 20:00:01,15.73210714,0.0001923,53.216,164.2893,24.6414,66.9366,-0.00023759,-0.00033849,0.0,0 STARLINK-4148,1 53293U 22086BD  22253.83334491 -.00033849  00000-0 -23759-3 0  9997,2 53293  53.2160 164.2893 0001923  24.6414  66.9366 15.73210714  8230,6727.865,91.533,351.023,348.436,0.0
53293.0,STARLINK-4148,PAYLOAD,2022-09-10 22:00:00,15.73213691,0.0001972,53.2159,163.8776,22.6546,181.1405,-0.00055172,-0.00077394,0.0,0 STARLINK-4148,1 53293U 22086BD  22253.91667824 -.00077394  00000-0 -55172-3 0  9992,2 53293  53.2159 163.8776 0001972  22.6546 181.1405 15.73213691  1303,6727.856,91.532,351.048,348.394,0.0
53293.0,STARLINK-4148,PAYLOAD,2022-09-11 14:00:01,15.73198808,0.0001771999999999,53.2152,160.5776,20.0629,1.5982,0.00070312,0.00099228,0.0,0 STARLINK-4148,1 53293U 22086BD  22254.58334491  .00099228  00000-0  70312-3 0  9998,2 53293  53.2152 160.5776 0001772  20.0629   1.5982 15.73198808  1309,6727.899,91.533,350.956,348.571,0.0
53293.0,STARLINK-4148,PAYLOAD,2022-09-11 22:00:00,15.7329113,0.0001858,53.2154,158.9293,21.7711,88.8561,-0.00080561,-0.00112628,0.0,0 STARLINK-4148,1 53293U 22086BD  22254.91667824 -.00112628  00000-0 -80561-3 0  9993,2 53293  53.2154 158.9293 0001858  21.7711  88.8561 15.73291130  8402,6727.635,91.528,350.75,348.25,0.0
53293.0,STARLINK-4148,PAYLOAD,2022-09-12 14:00:01,15.73129887,0.0001875,53.2154,155.629,27.1994,261.3129,0.00067061,0.00094276,0.0,0 STARLINK-4148,1 53293U 22086BD  22255.58334491  .00094276  00000-0  67061-3 0  9994,2 53293  53.2154 155.6290 0001875  27.1994 261.3129 15.73129887  1304,6728.095,91.537,351.222,348.699,0.0
53293.0,STARLINK-4148,PAYLOAD,2022-09-12 22:00:00,15.73210681,0.0002002,53.2153,153.9807,27.7391,349.6524,0.00022439,0.00031003,0.0,0 STARLINK-4148,1 53293U 22086BD  22255.91667824  .00031003  00000-0  22439-3 0  9999,2 53293  53.2153 153.9807 0002002  27.7391 349.6524 15.73210681  8565,6727.865,91.533,351.077,348.3830000000001,0.0
53293.0,STARLINK-4148,PAYLOAD,2022-09-13 14:00:01,15.73150822,0.0001776,53.2145,150.6801,27.9549,167.3689,0.00070926,0.00099902,0.0,0 STARLINK-4148,1 53293U 22086BD  22256.58334491  .00099902  00000-0  70926-3 0  9990,2 53293  53.2145 150.6801 0001776  27.9549 167.3689 15.73150822  1300,6728.035,91.536,351.095,348.705,0.0
53293.0,STARLINK-4148,PAYLOAD,2022-09-13 16:00:00,15.73161939,0.0001776,53.2145,150.2674,31.876,275.6703,0.0007652,0.00107986,0.0,0 STARLINK-4148,1 53293U 22086BD  22256.66667824  .00107986  00000-0  76520-3 0  9996,2 53293  53.2145 150.2674 0001776  31.8760 275.6703 15.73161939  8671,6728.004,91.535,351.064,348.6740000000001,0.0
53293.0,STARLINK-4148,PAYLOAD,2022-09-13 20:00:01,15.73235297,0.000179,53.2148,149.444,29.799,142.1694,-0.00030077,-0.00042684,0.0,0 STARLINK-4148,1 53293U 22086BD  22256.83334491 -.00042684  00000-0 -30077-3 0  9998,2 53293  53.2148 149.4440 0001790  29.7990 142.1694 15.73235297  8702,6727.795,91.531,350.86400000000015,348.455,0.0
53293.0,STARLINK-4148,PAYLOAD,2022-09-13 22:00:00,15.73242403,0.0001855,53.2147,149.0322,27.2038,257.0011,-0.00050661,-0.00071254,0.0,0 STARLINK-4148,1 53293U 22086BD  22256.91667824 -.00071254  00000-0 -50661-3 0  9992,2 53293  53.2147 149.0322 0001855  27.2038 257.0011 15.73242403  1309,6727.774,91.531,350.88699999999994,348.391,0.0
53293.0,STARLINK-4148,PAYLOAD,2022-09-14 14:00:01,15.73226335,0.0001761999999999,53.2148,145.7314,26.5463,75.5632,-0.00010983,-0.00016023,0.0,0 STARLINK-4148,1 53293U 22086BD  22257.58334491 -.00016023  00000-0 -10983-3 0  9993,2 53293  53.2148 145.7314 0001762  26.5463  75.5632 15.73226335  1303,6727.82,91.532,350.871,348.5,0.0
53293.0,STARLINK-4148,PAYLOAD,2022-09-14 22:00:00,15.73241897,0.0001961,53.2148,144.0833,28.8825,162.18200000000004,-0.0003418999999999,-0.00048419,0.0,0 STARLINK-4148,1 53293U 22086BD  22257.91667824 -.00048419  00000-0 -34190-3 0  9999,2 53293  53.2148 144.0833 0001961  28.8825 162.1820 15.73241897  1301,6727.776,91.531,350.96,348.321,0.0
53293.0,STARLINK-4148,PAYLOAD,2022-09-15 14:00:01,15.731489300000002,0.0001751999999999,53.2143,140.7825,32.9674,335.9917,0.00081469,0.00115044,0.0,0 STARLINK-4148,1 53293U 22086BD  22258.58334491  .00115044  00000-0  81469-3 0  9992,2 53293  53.2143 140.7825 0001752  32.9674 335.9917 15.73148930  1307,6728.041,91.536,351.085,348.727,0.0
53293.0,STARLINK-4148,PAYLOAD,2022-09-15 22:00:00,15.73261219,0.0001868,53.2144,139.1349,27.987,69.8819,-0.00051044,-0.00071841,0.0,0 STARLINK-4148,1 53293U 22086BD  22258.91667824 -.00071841  00000-0 -51044-3 0  9992,2 53293  53.2144 139.1349 0001868  27.9870  69.8819 15.73261219  1301,6727.721,91.53,350.842,348.329,0.0
